start=new Date('2023-05-25T00:00:00.000Z').valueOf();
sats=[{"APOAPSIS":"540.440","SEMIMAJOR_AXIS":"6917.883","GP_ID":"232449028","TLE_LINE2":"2 50192  53.2167 139.3562 0001000  86.1552 273.9554 15.08839052 82703","ECCENTRICITY":"0.00010000","ELEMENT_SET_NO":"999","PERIAPSIS":"539.056","CLASSIFICATION_TYPE":"U","EPHEMERIS_TYPE":"0","RA_OF_ASC_NODE":"139.3562","TIME_SYSTEM":"UTC","DECAY_DATE":null,"OBJECT_TYPE":"PAYLOAD","MEAN_ANOMALY":"273.9554","RCS_SIZE":"LARGE","MEAN_MOTION_DDOT":"0.0000000000000","OBJECT_ID":"2021-125AN","CENTER_NAME":"EARTH","NORAD_CAT_ID":"50192","ARG_OF_PERICENTER":"86.1552","FILE":"3916549","OBJECT_NAME":"STARLINK-3259","REF_FRAME":"TEME","MEAN_MOTION":"15.08839052","COUNTRY_CODE":"US","SITE":"AFWTR","REV_AT_EPOCH":"8270","LAUNCH_DATE":"2021-12-18","MEAN_MOTION_DOT":"0.00001099","INCLINATION":"53.2167","PERIOD":"95.438","MEAN_ELEMENT_THEORY":"SGP4","BSTAR":"0.00008710700000","EPOCH":"2023-05-24T09:41:57.577632","TLE_LINE1":"1 50192U 21125AN  23144.40413863  .00001099  00000-0  87107-4 0  9997"},{"RA_OF_ASC_NODE":"139.3079","EPHEMERIS_TYPE":"0","DECAY_DATE":null,"TIME_SYSTEM":"UTC","MEAN_ANOMALY":"268.6022","OBJECT_TYPE":"PAYLOAD","SEMIMAJOR_AXIS":"6917.906","APOAPSIS":"540.529","ECCENTRICITY":"0.00010950","GP_ID":"232448284","TLE_LINE2":"2 50193  53.2163 139.3079 0001095  91.5095 268.6022 15.08831486 82758","CLASSIFICATION_TYPE":"U","PERIAPSIS":"539.014","ELEMENT_SET_NO":"999","COUNTRY_CODE":"US","SITE":"AFWTR","PERIOD":"95.438","INCLINATION":"53.2163","LAUNCH_DATE":"2021-12-18","MEAN_MOTION_DOT":"0.00001595","REV_AT_EPOCH":"8275","TLE_LINE1":"1 50193U 21125AP  23144.41519618  .00001595  00000-0  11831-3 0  9995","EPOCH":"2023-05-24T09:57:52.949952","MEAN_ELEMENT_THEORY":"SGP4","BSTAR":"0.00011831000000","CENTER_NAME":"EARTH","OBJECT_ID":"2021-125AP","MEAN_MOTION_DDOT":"0.0000000000000","RCS_SIZE":"LARGE","MEAN_MOTION":"15.08831486","OBJECT_NAME":"STARLINK-3261","REF_FRAME":"TEME","FILE":"3916549","NORAD_CAT_ID":"50193","ARG_OF_PERICENTER":"91.5095"},{"ARG_OF_PERICENTER":"90.1109","NORAD_CAT_ID":"50194","FILE":"3916549","OBJECT_NAME":"STARLINK-3269","REF_FRAME":"TEME","MEAN_MOTION":"15.08838286","RCS_SIZE":"LARGE","OBJECT_ID":"2021-125AQ","MEAN_MOTION_DDOT":"0.0000000000000","CENTER_NAME":"EARTH","BSTAR":"0.00005820800000","MEAN_ELEMENT_THEORY":"SGP4","EPOCH":"2023-05-24T09:38:02.472864","TLE_LINE1":"1 50194U 21125AQ  23144.40141751  .00000639  00000-0  58208-4 0  9992","REV_AT_EPOCH":"8275","INCLINATION":"53.2164","LAUNCH_DATE":"2021-12-18","MEAN_MOTION_DOT":"0.00000639","PERIOD":"95.438","SITE":"AFWTR","COUNTRY_CODE":"US","ELEMENT_SET_NO":"999","PERIAPSIS":"539.012","CLASSIFICATION_TYPE":"U","TLE_LINE2":"2 50194  53.2164 139.3789 0001068  90.1109 270.0006 15.08838286 82753","GP_ID":"232448532","ECCENTRICITY":"0.00010680","APOAPSIS":"540.489","SEMIMAJOR_AXIS":"6917.886","OBJECT_TYPE":"PAYLOAD","MEAN_ANOMALY":"270.0006","TIME_SYSTEM":"UTC","DECAY_DATE":null,"EPHEMERIS_TYPE":"0","RA_OF_ASC_NODE":"139.3789"},{"PERIOD":"95.438","MEAN_MOTION_DOT":"0.00002564","LAUNCH_DATE":"2021-12-18","INCLINATION":"53.2159","REV_AT_EPOCH":"8268","TLE_LINE1":"1 50195U 21125AR  23144.27902262  .00002564  00000-0  17916-3 0  9999","EPOCH":"2023-05-24T06:41:47.554368","MEAN_ELEMENT_THEORY":"SGP4","BSTAR":"0.00017916000000","COUNTRY_CODE":"US","SITE":"AFWTR","MEAN_MOTION":"15.08827897","REF_FRAME":"TEME","OBJECT_NAME":"STARLINK-3266","FILE":"3916549","NORAD_CAT_ID":"50195","ARG_OF_PERICENTER":"93.0052","CENTER_NAME":"EARTH","OBJECT_ID":"2021-125AR","MEAN_MOTION_DDOT":"0.0000000000000","RCS_SIZE":"LARGE","TIME_SYSTEM":"UTC","DECAY_DATE":null,"MEAN_ANOMALY":"267.1046","OBJECT_TYPE":"PAYLOAD","RA_OF_ASC_NODE":"139.9212","EPHEMERIS_TYPE":"0","ECCENTRICITY":"0.00009300","TLE_LINE2":"2 50195  53.2159 139.9212 0000930  93.0052 267.1046 15.08827897 82680","GP_ID":"232449278","CLASSIFICATION_TYPE":"U","PERIAPSIS":"539.139","ELEMENT_SET_NO":"999","SEMIMAJOR_AXIS":"6917.917","APOAPSIS":"540.426"},{"OBJECT_TYPE":"PAYLOAD","MEAN_ANOMALY":"270.4693","TIME_SYSTEM":"UTC","DECAY_DATE":null,"RA_OF_ASC_NODE":"140.0326","EPHEMERIS_TYPE":"0","PERIAPSIS":"538.919","CLASSIFICATION_TYPE":"U","ELEMENT_SET_NO":"999","TLE_LINE2":"2 50196  53.2158 140.0326 0001214  89.6438 270.4693 15.08835743 82688","GP_ID":"232449529","ECCENTRICITY":"0.00012140","APOAPSIS":"540.598","SEMIMAJOR_AXIS":"6917.893","EPOCH":"2023-05-24T06:21:59.058432","TLE_LINE1":"1 50196U 21125AS  23144.26526688  .00001311  00000-0  10047-3 0  9990","BSTAR":"0.00010047000000","MEAN_ELEMENT_THEORY":"SGP4","MEAN_MOTION_DOT":"0.00001311","LAUNCH_DATE":"2021-12-18","INCLINATION":"53.2158","PERIOD":"95.438","REV_AT_EPOCH":"8268","SITE":"AFWTR","COUNTRY_CODE":"US","OBJECT_NAME":"STARLINK-3263","REF_FRAME":"TEME","MEAN_MOTION":"15.08835743","ARG_OF_PERICENTER":"89.6438","NORAD_CAT_ID":"50196","FILE":"3916549","MEAN_MOTION_DDOT":"0.0000000000000","OBJECT_ID":"2021-125AS","CENTER_NAME":"EARTH","RCS_SIZE":"LARGE"},{"CENTER_NAME":"EARTH","MEAN_MOTION_DDOT":"0.0000000000000","OBJECT_ID":"2021-125AT","RCS_SIZE":"LARGE","MEAN_MOTION":"15.08839654","OBJECT_NAME":"STARLINK-3267","REF_FRAME":"TEME","FILE":"3916549","NORAD_CAT_ID":"50197","ARG_OF_PERICENTER":"91.8636","COUNTRY_CODE":"US","SITE":"AFWTR","PERIOD":"95.438","LAUNCH_DATE":"2021-12-18","INCLINATION":"53.2171","MEAN_MOTION_DOT":"0.00001080","REV_AT_EPOCH":"8275","TLE_LINE1":"1 50197U 21125AT  23144.39677784  .00001080  00000-0  85911-4 0  9995","EPOCH":"2023-05-24T09:31:21.605376","MEAN_ELEMENT_THEORY":"SGP4","BSTAR":"0.00008591100000","SEMIMAJOR_AXIS":"6917.881","APOAPSIS":"540.495","ECCENTRICITY":"0.00010820","TLE_LINE2":"2 50197  53.2171 139.3879 0001082  91.8636 268.2480 15.08839654 82758","GP_ID":"232447784","CLASSIFICATION_TYPE":"U","PERIAPSIS":"538.998","ELEMENT_SET_NO":"999","RA_OF_ASC_NODE":"139.3879","EPHEMERIS_TYPE":"0","TIME_SYSTEM":"UTC","DECAY_DATE":null,"OBJECT_TYPE":"PAYLOAD","MEAN_ANOMALY":"268.2480"},{"MEAN_MOTION":"15.08835032","REF_FRAME":"TEME","OBJECT_NAME":"STARLINK-3264","FILE":"3916549","ARG_OF_PERICENTER":"91.2719","NORAD_CAT_ID":"50198","CENTER_NAME":"EARTH","MEAN_MOTION_DDOT":"0.0000000000000","OBJECT_ID":"2021-125AU","RCS_SIZE":"LARGE","PERIOD":"95.438","LAUNCH_DATE":"2021-12-18","INCLINATION":"53.2157","MEAN_MOTION_DOT":"0.00001260","REV_AT_EPOCH":"8268","TLE_LINE1":"1 50198U 21125AU  23144.24958460  .00001260  00000-0  97244-4 0  9995","EPOCH":"2023-05-24T05:59:24.109440","MEAN_ELEMENT_THEORY":"SGP4","BSTAR":"0.00009724400000","COUNTRY_CODE":"US","SITE":"AFWTR","ECCENTRICITY":"0.00011350","GP_ID":"232448032","TLE_LINE2":"2 50198  53.2157 140.0531 0001135  91.2719 268.8403 15.08835032 82681","CLASSIFICATION_TYPE":"U","PERIAPSIS":"538.975","ELEMENT_SET_NO":"999","SEMIMAJOR_AXIS":"6917.896","APOAPSIS":"540.546","DECAY_DATE":null,"TIME_SYSTEM":"UTC","OBJECT_TYPE":"PAYLOAD","MEAN_ANOMALY":"268.8403","RA_OF_ASC_NODE":"140.0531","EPHEMERIS_TYPE":"0"},{"COUNTRY_CODE":"US","SITE":"AFWTR","LAUNCH_DATE":"2021-12-18","INCLINATION":"53.2162","MEAN_MOTION_DOT":"0.00001431","PERIOD":"95.438","REV_AT_EPOCH":"8269","EPOCH":"2023-05-24T08:43:40.367424","TLE_LINE1":"1 50199U 21125AV  23144.36366166  .00001431  00000-0  10796-3 0  9991","MEAN_ELEMENT_THEORY":"SGP4","BSTAR":"0.00010796000000","MEAN_MOTION_DDOT":"0.0000000000000","OBJECT_ID":"2021-125AV","CENTER_NAME":"EARTH","RCS_SIZE":"LARGE","REF_FRAME":"TEME","OBJECT_NAME":"STARLINK-3270","MEAN_MOTION":"15.08839953","NORAD_CAT_ID":"50199","ARG_OF_PERICENTER":"88.6663","FILE":"3916549","RA_OF_ASC_NODE":"139.5415","EPHEMERIS_TYPE":"0","DECAY_DATE":null,"TIME_SYSTEM":"UTC","OBJECT_TYPE":"PAYLOAD","MEAN_ANOMALY":"271.4453","APOAPSIS":"540.489","SEMIMAJOR_AXIS":"6917.881","GP_ID":"232448778","TLE_LINE2":"2 50199  53.2162 139.5415 0001075  88.6663 271.4453 15.08839953 82695","ECCENTRICITY":"0.00010750","PERIAPSIS":"539.002","CLASSIFICATION_TYPE":"U","ELEMENT_SET_NO":"999"},{"ELEMENT_SET_NO":"999","PERIAPSIS":"539.012","CLASSIFICATION_TYPE":"U","TLE_LINE2":"2 50200  53.2162 139.4272 0001064  91.5162 268.5952 15.08839091 82710","GP_ID":"232449029","ECCENTRICITY":"0.00010640","APOAPSIS":"540.484","SEMIMAJOR_AXIS":"6917.883","MEAN_ANOMALY":"268.5952","OBJECT_TYPE":"PAYLOAD","DECAY_DATE":null,"TIME_SYSTEM":"UTC","EPHEMERIS_TYPE":"0","RA_OF_ASC_NODE":"139.4272","NORAD_CAT_ID":"50200","ARG_OF_PERICENTER":"91.5162","FILE":"3916549","REF_FRAME":"TEME","OBJECT_NAME":"STARLINK-3235","MEAN_MOTION":"15.08839091","RCS_SIZE":"LARGE","OBJECT_ID":"2021-125AW","MEAN_MOTION_DDOT":"0.0000000000000","CENTER_NAME":"EARTH","MEAN_ELEMENT_THEORY":"SGP4","BSTAR":"0.00008502500000","EPOCH":"2023-05-24T09:22:08.787936","TLE_LINE1":"1 50200U 21125AW  23144.39037949  .00001066  00000-0  85025-4 0  9993","REV_AT_EPOCH":"8271","LAUNCH_DATE":"2021-12-18","INCLINATION":"53.2162","MEAN_MOTION_DOT":"0.00001066","PERIOD":"95.438","SITE":"AFWTR","COUNTRY_CODE":"US"},{"ARG_OF_PERICENTER":"89.9987","NORAD_CAT_ID":"50201","FILE":"3916549","REF_FRAME":"TEME","OBJECT_NAME":"STARLINK-3255","MEAN_MOTION":"15.08835308","RCS_SIZE":"LARGE","MEAN_MOTION_DDOT":"0.0000000000000","OBJECT_ID":"2021-125AX","CENTER_NAME":"EARTH","REV_AT_EPOCH":"8270","MEAN_MOTION_DOT":"0.00000936","LAUNCH_DATE":"2021-12-18","INCLINATION":"53.2158","PERIOD":"95.438","BSTAR":"0.00007690300000","MEAN_ELEMENT_THEORY":"SGP4","EPOCH":"2023-05-24T09:06:15.251616","TLE_LINE1":"1 50201U 21125AX  23144.37934319  .00000936  00000-0  76903-4 0  9999","COUNTRY_CODE":"US","SITE":"AFWTR","GP_ID":"232448285","TLE_LINE2":"2 50201  53.2158 139.4781 0001220  89.9987 270.1145 15.08835308 82700","ECCENTRICITY":"0.00012200","ELEMENT_SET_NO":"999","PERIAPSIS":"538.916","CLASSIFICATION_TYPE":"U","APOAPSIS":"540.604","SEMIMAJOR_AXIS":"6917.895","DECAY_DATE":null,"TIME_SYSTEM":"UTC","MEAN_ANOMALY":"270.1145","OBJECT_TYPE":"PAYLOAD","EPHEMERIS_TYPE":"0","RA_OF_ASC_NODE":"139.4781"}];
